OBJECT_NAME,OBJECT_ID,EPOCH,MEAN_MOTION,ECCENTRICITY,INCLINATION,RA_OF_ASC_NODE,ARG_OF_PERICENTER,MEAN_ANOMALY,EPHEMERIS_TYPE,CLASSIFICATION_TYPE,NORAD_CAT_ID,ELEMENT_SET_NO,REV_AT_EPOCH,BSTAR,MEAN_MOTION_DOT,MEAN_MOTION_DDOT
SIRION PATHFINDER-2,2018-099B,2026-05-17T09:22:50.221056,15.14244237,.0009997,97.4274,187.1834,54.6375,305.5790,0,U,43759,999,40796,.18296E-3,.3283E-4,0
CORVUS BC4,2018-099K,2026-05-17T08:32:32.796096,15.12221564,.0010054,97.4088,181.2413,105.9323,254.3016,0,U,43767,999,40774,.16582E-3,.2804E-4,0
M2 PATHFINDER,2020-037E,2026-05-17T12:30:42.962112,15.04532011,.0009927,97.8162,328.4106,254.3305,105.6826,0,U,45727,999,32088,.91189E-4,.1215E-4,0
NETSAT-4,2020-068U,2026-05-17T00:03:42.968160,15.42764332,.0007521,97.8609,142.7654,79.7395,280.4699,0,U,46504,999,31096,.33255E-3,.14468E-3,0
NETSAT-3,2020-068V,2026-05-17T05:51:29.424384,15.41541908,.000754,97.8658,141.2828,92.0292,268.1817,0,U,46505,999,31091,.30267E-3,.12629E-3,0
NETSAT-1,2020-068W,2026-05-17T11:33:38.193120,15.33838768,.0006964,97.8749,136.2241,110.0854,250.1137,0,U,46506,999,31059,.26627E-3,.8634E-4,0
NETSAT-2,2020-068X,2026-05-17T11:18:30.686400,15.44607097,.0006267,97.8624,143.0608,100.7946,259.4007,0,U,46507,999,31099,.30878E-3,.14285E-3,0
GREENCUBE (IO-117),2022-080E,2026-05-17T12:34:27.164928,6.42583321,.0008813,70.1432,308.9131,296.7194,63.2564,0,U,53109,999,9009,0,-.3E-7,0
SITRO-AIS 5 (KATYS),2023-091L,2026-05-17T12:12:38.490912,15.28693625,.0011149,97.5077,201.1317,202.8892,157.1852,0,U,57176,999,15965,.29429E-3,.8149E-4,0
SITRO-AIS 6 (CHIRKIN),2023-091AC,2026-05-17T11:36:49.176864,15.25303095,.0011284,97.5084,200.3851,206.3863,153.6802,0,U,57192,999,15960,.25493E-3,.6356E-4,0
SITRO-AIS 8 (ANOKHIN),2023-091AD,2026-05-17T12:18:20.117376,15.31238978,.0010483,97.5072,202.6029,198.1399,161.9470,0,U,57193,999,15975,.29296E-3,.8776E-4,0
SITRO-AIS 7 (FARTUSHNIY),2023-091AE,2026-05-17T11:32:31.437888,15.25005834,.0011121,97.5081,200.2225,207.3780,152.6873,0,U,57194,999,15959,.23518E-3,.5805E-4,0
SITRO-AIS 10 (BURDAEV),2023-091AK,2026-05-17T11:23:26.221056,15.37366247,.0007454,97.5095,207.3106,171.1389,188.9988,0,U,57199,999,16004,.35717E-3,.13014E-3,0
SITRO-AIS 9 (SHCHUKIN),2023-091AM,2026-05-17T11:47:57.487776,15.36911103,.000767,97.5093,207.0811,171.6559,188.4814,0,U,57201,999,16003,.33695E-3,.12093E-3,0
SITRO-AIS 12 (SMIRENNIY),2023-091AQ,2026-05-17T11:42:42.912288,15.37197678,.000746,97.5106,207.5256,165.7901,194.3554,0,U,57204,999,16005,.34571E-3,.12525E-3,0
SITRO-AIS 11 (SHEFFER),2023-091AU,2026-05-17T12:13:49.550592,15.37592622,.0007364,97.5103,207.7757,165.5982,194.5474,0,U,57208,999,16007,.3488E-3,.128E-3,0
SITRO-AIS 25,2024-039R,2026-05-17T11:42:06.238944,14.93287815,.0147392,95.3920,213.9991,75.7640,285.9905,0,U,59066,999,12014,.29313E-3,.3768E-4,0
SITRO-AIS 26,2024-039S,2026-05-17T11:38:07.217664,14.93090071,.0147696,95.3920,213.9011,76.3049,285.4570,0,U,59067,999,12013,.28827E-3,.3688E-4,0
SITRO-AIS 27,2024-039T,2026-05-17T12:44:02.931072,14.93501136,.0146631,95.3923,214.1903,74.8237,286.9151,0,U,59068,999,12016,.24589E-3,.3167E-4,0
SITRO-AIS 28,2024-039U,2026-05-17T12:12:34.941600,14.93538611,.0146712,95.3926,214.2206,74.7625,286.9768,0,U,59071,999,12016,.2522E-3,.3253E-4,0
GRBBETA,2024-128C,2026-05-17T11:43:58.018944,15.06365563,.0044813,61.9901,323.9502,128.3151,232.1985,0,U,60237,999,10164,.19526E-3,.2731E-4,0
OOV-CUBE (TUBSAT-30),2024-128F,2026-05-17T05:54:32.474880,15.02602654,.0048473,61.9947,333.4500,127.0171,233.5371,0,U,60240,999,10146,.12521E-3,.1499E-4,0
ROBUSTA-3A (MEDITERRANEE),2024-128J,2026-05-17T12:05:24.165024,15.11153676,.0045531,61.9865,316.7111,122.2807,238.2712,0,U,60243,999,10178,.34587E-3,.5749E-4,0
LASARSAT,2024-247Q,2026-05-17T12:42:56.740032,15.44352225,.0005258,44.9755,74.2193,153.8869,206.2286,0,U,62391,999,7857,.41588E-3,.19309E-3,0
CROCUBE,2024-247T,2026-05-17T02:38:26.274912,15.45945015,.0004879,44.9727,74.3723,154.0248,206.0887,0,U,62394,999,7853,.57686E-3,.28478E-3,0
FORESAIL-1 PRIME,2025-276DS,2026-05-17T11:41:50.870976,15.18394728,.0002246,97.4209,211.3256,172.0596,188.0674,0,U,66778,999,2574,.16816E-3,.3391E-4,0
KNACKSAT-2,1998-067XZ,2026-05-17T02:57:39.962016,15.57130543,.0012355,51.6297,90.3820,84.6004,275.6397,0,U,67683,999,1543,.48184E-3,.35405E-3,0
