SIRION PATHFINDER-2     
1 43759U 18099B   26137.39085904  .00003283  00000+0  18296-3 0  9996
2 43759  97.4274 187.1834 0009997  54.6375 305.5790 15.14244237407967
CORVUS BC4              
1 43767U 18099K   26137.35593514  .00002804  00000+0  16582-3 0  9996
2 43767  97.4088 181.2413 0010054 105.9323 254.3016 15.12221564407740
M2 PATHFINDER           
1 45727U 20037E   26137.52133058  .00001215  00000+0  91189-4 0  9993
2 45727  97.8162 328.4106 0009927 254.3305 105.6826 15.04532011320884
NETSAT-4                
1 46504U 20068U   26137.00258065  .00014468  00000+0  33255-3 0  9993
2 46504  97.8609 142.7654 0007521  79.7395 280.4699 15.42764332310968
NETSAT-3                
1 46505U 20068V   26137.24409056  .00012629  00000+0  30267-3 0  9995
2 46505  97.8658 141.2828 0007540  92.0292 268.1817 15.41541908310916
NETSAT-1                
1 46506U 20068W   26137.48169205  .00008634  00000+0  26627-3 0  9997
2 46506  97.8749 136.2241 0006964 110.0854 250.1137 15.33838768310599
NETSAT-2                
1 46507U 20068X   26137.47118850  .00014285  00000+0  30878-3 0  9999
2 46507  97.8624 143.0608 0006267 100.7946 259.4007 15.44607097310992
GREENCUBE (IO-117)      
1 53109U 22080E   26137.52392552 -.00000003  00000+0  00000+0 0  9994
2 53109  70.1432 308.9131 0008813 296.7194  63.2564  6.42583321 90098
SITRO-AIS 5 (KATYS)     
1 57176U 23091L   26137.50877883  .00008149  00000+0  29429-3 0  9996
2 57176  97.5077 201.1317 0011149 202.8892 157.1852 15.28693625159657
SITRO-AIS 6 (CHIRKIN)   
1 57192U 23091AC  26137.48390251  .00006356  00000+0  25493-3 0  9995
2 57192  97.5084 200.3851 0011284 206.3863 153.6802 15.25303095159601
SITRO-AIS 8 (ANOKHIN)   
1 57193U 23091AD  26137.51273284  .00008776  00000+0  29296-3 0  9999
2 57193  97.5072 202.6029 0010483 198.1399 161.9470 15.31238978159756
SITRO-AIS 7 (FARTUSHNIY)
1 57194U 23091AE  26137.48091942  .00005805  00000+0  23518-3 0  9996
2 57194  97.5081 200.2225 0011121 207.3780 152.6873 15.25005834159598
SITRO-AIS 10 (BURDAEV)  
1 57199U 23091AK  26137.47460904  .00013014  00000+0  35717-3 0  9993
2 57199  97.5095 207.3106 0007454 171.1389 188.9988 15.37366247160043
SITRO-AIS 9 (SHCHUKIN)  
1 57201U 23091AM  26137.49163759  .00012093  00000+0  33695-3 0  9996
2 57201  97.5093 207.0811 0007670 171.6559 188.4814 15.36911103160037
SITRO-AIS 12 (SMIRENNIY)
1 57204U 23091AQ  26137.48799667  .00012525  00000+0  34571-3 0  9995
2 57204  97.5106 207.5256 0007460 165.7901 194.3554 15.37197678160058
SITRO-AIS 11 (SHEFFER)  
1 57208U 23091AU  26137.50960128  .00012800  00000+0  34880-3 0  9993
2 57208  97.5103 207.7757 0007364 165.5982 194.5474 15.37592622160070
SITRO-AIS 25            
1 59066U 24039R   26137.48757221  .00003768  00000+0  29313-3 0  9993
2 59066  95.3920 213.9991 0147392  75.7640 285.9905 14.93287815120149
SITRO-AIS 26            
1 59067U 24039S   26137.48480576  .00003688  00000+0  28827-3 0  9990
2 59067  95.3920 213.9011 0147696  76.3049 285.4570 14.93090071120138
SITRO-AIS 27            
1 59068U 24039T   26137.53058948  .00003167  00000+0  24589-3 0  9994
2 59068  95.3923 214.1903 0146631  74.8237 286.9151 14.93501136120168
SITRO-AIS 28            
1 59071U 24039U   26137.50873775  .00003253  00000+0  25220-3 0  9997
2 59071  95.3926 214.2206 0146712  74.7625 286.9768 14.93538611120164
GRBBETA                 
1 60237U 24128C   26137.48886596  .00002731  00000+0  19526-3 0  9996
2 60237  61.9901 323.9502 0044813 128.3151 232.1985 15.06365563101643
OOV-CUBE (TUBSAT-30)    
1 60240U 24128F   26137.24620920  .00001499  00000+0  12521-3 0  9999
2 60240  61.9947 333.4500 0048473 127.0171 233.5371 15.02602654101460
ROBUSTA-3A (MEDITERRAN*)
1 60243U 24128J   26137.50375191  .00005749  00000+0  34587-3 0  9996
2 60243  61.9865 316.7111 0045531 122.2807 238.2712 15.11153676101780
LASARSAT                
1 62391U 24247Q   26137.52982338  .00019309  00000+0  41588-3 0  9999
2 62391  44.9755  74.2193 0005258 153.8869 206.2286 15.44352225 78579
CROCUBE                 
1 62394U 24247T   26137.11002633  .00028478  00000+0  57686-3 0  9991
2 62394  44.9727  74.3723 0004879 154.0248 206.0887 15.45945015 78530
FORESAIL-1 PRIME        
1 66778U 25276DS  26137.48739434  .00003391  00000+0  16816-3 0  9997
2 66778  97.4209 211.3256 0002246 172.0596 188.0674 15.18394728 25741
KNACKSAT-2              
1 67683U 98067XZ  26137.12337919  .00035405  00000+0  48184-3 0  9998
2 67683  51.6297  90.3820 0012355  84.6004 275.6397 15.57130543 15438
